NORAD_CAT_ID,OBJECT_NAME,OBJECT_TYPE,EPOCH,MEAN_MOTION,ECCENTRICITY,INCLINATION,RA_OF_ASC_NODE,ARG_OF_PERICENTER,MEAN_ANOMALY,BSTAR,MEAN_MOTION_DOT,MEAN_MOTION_DDOT,TLE_LINE0,TLE_LINE1,TLE_LINE2,SEMIMAJOR_AXIS,PERIOD,APOGEE,PERIGEE,DECAYED
54054.0,STARLINK-5163,PAYLOAD,2023-06-20 05:32:32,15.08831856,0.0001217,53.2161,124.0559,92.6192,267.494,1.842e-05,5e-08,0.0,0 STARLINK-5163,1 54054U 22136D   23171.23093115  .00000005  00000-0  18420-4 0  9994,2 54054  53.2161 124.0559 0001217  92.6192 267.4940 15.08831856 37348,6917.905,95.438,540.612,538.928,0.0
54054.0,STARLINK-5163,PAYLOAD,2023-06-20 13:29:28,15.08834484,0.0001232,53.2162,122.5694,92.5879,267.5254,2.4696e-05,1.05e-06,0.0,0 STARLINK-5163,1 54054U 22136D   23171.56213062  .00000105  00000-0  24696-4 0  9998,2 54054  53.2162 122.5694 0001232  92.5879 267.5254 15.08834484 36911,6917.897,95.438,540.615,538.91,0.0
54054.0,STARLINK-5163,PAYLOAD,2023-06-21 02:12:32,15.08843045,0.0001175,53.2159,120.1904,91.5845,268.5282,3.1939e-05,2.21e-06,0.0,0 STARLINK-5163,1 54054U 22136D   23172.09204579  .00000221  00000-0  31939-4 0  9997,2 54054  53.2159 120.1904 0001175  91.5845 268.5282 15.08843045 37470,6917.871,95.437,540.549,538.923,0.0
54054.0,STARLINK-5163,PAYLOAD,2023-06-21 13:20:14,15.0884201,0.0001166,53.2168,118.1091,89.3738,270.7388,-3.1367e-05,-7.87e-06,0.0,0 STARLINK-5163,1 54054U 22136D   23172.55572766 -.00000787  00000-0 -31367-4 0  9998,2 54054  53.2168 118.1091 0001166  89.3738 270.7388 15.08842010 37068,6917.874,95.437,540.546,538.933,0.0
54054.0,STARLINK-5163,PAYLOAD,2023-06-22 02:03:20,15.0883229,0.000129,53.2175,115.7299,81.2553,278.8585,1.3213e-05,-7.8e-07,0.0,0 STARLINK-5163,1 54054U 22136D   23173.08565553 -.00000078  00000-0  13213-4 0  9995,2 54054  53.2175 115.7299 0001290  81.2553 278.8585 15.08832290 37622,6917.904,95.438,540.661,538.877,0.0
54054.0,STARLINK-5163,PAYLOAD,2023-06-23 01:54:06,15.08847535,0.0001025,53.2165,111.2693,90.5825,269.5284,2.8261e-05,1.62e-06,0.0,0 STARLINK-5163,1 54054U 22136D   23174.07924654  .00000162  00000-0  28261-4 0  9998,2 54054  53.2165 111.2693 0001025  90.5825 269.5284 15.08847535 37778,6917.857,95.437,540.431,539.013,0.0
54054.0,STARLINK-5163,PAYLOAD,2023-06-23 13:01:49,15.08842648,0.000108,53.2162,109.1875,86.1921,273.9194,-1.2436e-05,-4.86e-06,0.0,0 STARLINK-5163,1 54054U 22136D   23174.54293008 -.00000486  00000-0 -12436-4 0  9990,2 54054  53.2162 109.1875 0001080  86.1921 273.9194 15.08842648 37849,6917.872,95.437,540.484,538.99,0.0
54054.0,STARLINK-5163,PAYLOAD,2023-06-24 01:44:54,15.08833805,9.28e-05,53.2171,106.8083,84.3124,275.7974,6.2884e-05,7.13e-06,0.0,0 STARLINK-5163,1 54054U 22136D   23175.07285495  .00000713  00000-0  62884-4 0  9993,2 54054  53.2171 106.8083 0000928  84.3124 275.7974 15.08833805 37929,6917.899,95.438,540.406,539.122,0.0
54054.0,STARLINK-5163,PAYLOAD,2023-06-24 04:55:40,15.08840832,9.34e-05,53.2162,106.212,96.8513,263.2585,5.1814e-05,5.37e-06,0.0,0 STARLINK-5163,1 54054U 22136D   23175.20533072  .00000537  00000-0  51814-4 0  9990,2 54054  53.2162 106.2120 0000934  96.8513 263.2585 15.08840832 37942,6917.878,95.438,540.389,539.097,0.0
54054.0,STARLINK-5163,PAYLOAD,2023-06-25 04:46:27,15.08850818,0.0001114,53.2166,101.7514,108.9458,251.1655,4.615e-05,4.47e-06,0.0,0 STARLINK-5163,1 54054U 22136D   23176.19892424  .00000447  00000-0  46150-4 0  9995,2 54054  53.2166 101.7514 0001114 108.9458 251.1655 15.08850818 38093,6917.847,95.437,540.483,538.942,0.0
54054.0,STARLINK-5163,PAYLOAD,2023-06-26 01:26:28,15.0884385,0.00012,53.2163,97.8876,99.346,260.7668,0.00012069,1.634e-05,0.0,0 STARLINK-5163,1 54054U 22136D   23177.06004661  .00001634  00000-0  12069-3 0  9990,2 54054  53.2163  97.8876 0001200  99.3460 260.7668 15.08843850 38221,6917.869,95.437,540.564,538.903,0.0
54054.0,STARLINK-5163,PAYLOAD,2023-06-26 18:55:43,15.08832147,0.000122,53.2173,94.6165,105.6419,254.4708,-2.1744e-05,-6.34e-06,0.0,0 STARLINK-5163,1 54054U 22136D   23177.78869966 -.00000634  00000-0 -21744-4 0  9998,2 54054  53.2173  94.6165 0001220 105.6419 254.4708 15.08832147 38339,6917.904,95.438,540.613,538.925,0.0
54054.0,STARLINK-5163,PAYLOAD,2023-06-27 10:49:34,15.08837618,0.0001132,53.2165,91.6438,88.6418,271.4703,5.1648e-06,-2.06e-06,0.0,0 STARLINK-5163,1 54054U 22136D   23178.45109795 -.00000206  00000-0  51648-5 0  9991,2 54054  53.2165  91.6438 0001132  88.6418 271.4703 15.08837618 38434,6917.888,95.438,540.536,538.97,0.0
54054.0,STARLINK-5163,PAYLOAD,2023-06-28 04:18:48,15.08845899,0.0001108,53.216,88.3726,89.535,270.5769,0.00016587,2.353e-05,0.0,0 STARLINK-5163,1 54054U 22136D   23179.17973293  .00002353  00000-0  16587-3 0  9998,2 54054  53.2160  88.3726 0001108  89.5350 270.5769 15.08845899 38544,6917.862,95.437,540.494,538.961,0.0
54054.0,STARLINK-5163,PAYLOAD,2023-06-29 02:34:13,15.08835417,0.0001088,53.217,84.2101,86.5163,273.5954,0.00014094,1.956e-05,0.0,0 STARLINK-5163,1 54054U 22136D   23180.10710227  .00001956  00000-0  14094-3 0  9998,2 54054  53.2170  84.2101 0001088  86.5163 273.5954 15.08835417 38682,6917.894,95.438,540.512,539.007,0.0
54054.0,STARLINK-5163,PAYLOAD,2023-06-30 10:21:55,15.08843448,0.0001114,53.2165,78.2628,85.4248,274.6871,4.0857e-05,3.63e-06,0.0,0 STARLINK-5163,1 54054U 22136D   23181.43189757  .00000363  00000-0  40857-4 0  9991,2 54054  53.2165  78.2628 0001114  85.4248 274.6871 15.08843448 38880,6917.87,95.437,540.506,538.964,0.0
54054.0,STARLINK-5163,PAYLOAD,2023-07-01 00:40:24,15.08838905,0.0001218,53.2167,75.5876,83.1433,276.9697,5.8916e-05,6.5e-06,0.0,0 STARLINK-5163,1 54054U 22136D   23182.02806213  .00000650  00000-0  58916-4 0  9994,2 54054  53.2167  75.5876 0001218  83.1433 276.9697 15.08838905 38976,6917.884,95.438,540.591,538.906,0.0
54054.0,STARLINK-5163,PAYLOAD,2023-07-02 02:06:34,15.08846288,0.0001093,53.2161,70.8286,81.2165,278.8951,5.3435e-07,-2.79e-06,0.0,0 STARLINK-5163,1 54054U 22136D   23183.08790149 -.00000279  00000-0  53435-6 0  9992,2 54054  53.2161  70.8286 0001093  81.2165 278.8951 15.08846288 39131,6917.861,95.437,540.482,538.97,0.0
54054.0,STARLINK-5163,PAYLOAD,2023-07-03 16:15:49,15.08843418,0.0001231,53.2159,63.6907,89.644,270.4693,0.00011169,1.49e-05,0.0,0 STARLINK-5163,1 54054U 22136D   23184.67765818  .00001490  00000-0  11169-3 0  9993,2 54054  53.2159  63.6907 0001231  89.6440 270.4693 15.08843418 39379,6917.87,95.437,540.587,538.883,0.0
54054.0,STARLINK-5163,PAYLOAD,2023-07-04 01:48:07,15.08852147,0.0001196,53.217,61.9069,91.3739,268.739,0.00014723,2.057e-05,0.0,0 STARLINK-5163,1 54054U 22136D   23185.07509035  .00002057  00000-0  14723-3 0  9994,2 54054  53.2170  61.9069 0001196  91.3739 268.7390 15.08852147 39433,6917.843,95.437,540.536,538.881,0.0
54054.0,STARLINK-5163,PAYLOAD,2023-07-04 16:06:37,15.08837212,0.0001101,53.2165,59.2307,99.5521,260.5596,-4.9824e-05,-1.081e-05,0.0,0 STARLINK-5163,1 54054U 22136D   23185.67126484 -.00001081  00000-0 -49824-4 0  9992,2 54054  53.2165  59.2307 0001101  99.5521 260.5596 15.08837212 39521,6917.889,95.438,540.516,538.992,0.0
54054.0,STARLINK-5163,PAYLOAD,2023-07-06 01:29:43,15.0883855,0.0001065,53.2174,52.9868,97.3693,262.742,-3.4229e-05,-8.32e-06,0.0,0 STARLINK-5163,1 54054U 22136D   23187.06230608 -.00000832  00000-0 -34229-4 0  9997,2 54054  53.2174  52.9868 0001065  97.3693 262.7420 15.08838550 39737,6917.885,95.438,540.487,539.013,0.0
54054.0,STARLINK-5163,PAYLOAD,2023-07-06 23:45:06,15.08843987,0.0001092,53.2173,48.8235,106.6341,253.4771,0.00017126,2.439e-05,0.0,0 STARLINK-5163,1 54054U 22136D   23187.98966351  .00002439  00000-0  17126-3 0  9998,2 54054  53.2173  48.8235 0001092 106.6341 253.4771 15.08843987 39873,6917.868,95.437,540.489,538.978,0.0
54054.0,STARLINK-5163,PAYLOAD,2023-07-07 15:38:58,15.08838361,0.0001018,53.2161,45.8489,95.4271,264.6838,0.00017026,2.423e-05,0.0,0 STARLINK-5163,1 54054U 22136D   23188.65206897  .00002423  00000-0  17026-3 0  9997,2 54054  53.2161  45.8489 0001018  95.4271 264.6838 15.08838361 39972,6917.885,95.438,540.455,539.046,0.0
54054.0,STARLINK-5163,PAYLOAD,2023-07-08 20:15:55,15.0884316,9.93e-05,53.2171,40.4964,87.689,272.4216,3.8856e-05,3.31e-06,0.0,0 STARLINK-5163,1 54054U 22136D   23189.84439095  .00000331  00000-0  38856-4 0  9998,2 54054  53.2171  40.4964 0000993  87.6890 272.4216 15.08843160 40155,6917.871,95.437,540.423,539.049,0.0
54054.0,STARLINK-5163,PAYLOAD,2023-07-10 07:14:24,15.08842181,9.97e-05,53.2175,33.9558,81.2313,278.8792,5.2343e-05,5.45e-06,0.0,0 STARLINK-5163,1 54054U 22136D   23191.30167165  .00000545  00000-0  52343-4 0  9992,2 54054  53.2175  33.9558 0000997  81.2313 278.8792 15.08842181 40374,6917.874,95.437,540.428,539.049,0.0
54054.0,STARLINK-5163,PAYLOAD,2023-07-11 16:37:30,15.0884108,0.0001,53.2173,27.71,86.6857,273.4249,7.6594e-05,9.31e-06,0.0,0 STARLINK-5163,1 54054U 22136D   23192.69271111  .00000931  00000-0  76594-4 0  9995,2 54054  53.2173  27.7100 0001000  86.6857 273.4249 15.08841080 40582,6917.877,95.437,540.434,539.05,0.0
54054.0,STARLINK-5163,PAYLOAD,2023-07-12 19:39:03,15.08844652,0.0001014,53.2175,22.655,87.5877,272.5231,3.966e-05,3.44e-06,0.0,0 STARLINK-5163,1 54054U 22136D   23193.81878901  .00000344  00000-0  39660-4 0  9991,2 54054  53.2175  22.6550 0001014  87.5877 272.5231 15.08844652 40752,6917.866,95.437,540.433,539.03,0.0
54054.0,STARLINK-5163,PAYLOAD,2023-07-13 16:19:05,15.08833342,9.61e-05,53.2174,18.7886,86.2139,273.8963,-1.6985e-05,-5.58e-06,0.0,0 STARLINK-5163,1 54054U 22136D   23194.67991903 -.00000558  00000-0 -16985-4 0  9998,2 54054  53.2174  18.7886 0000961  86.2139 273.8963 15.08833342 40880,6917.901,95.438,540.431,539.101,0.0
54054.0,STARLINK-5163,PAYLOAD,2023-07-13 19:29:50,15.08839531,9.4e-05,53.2173,18.1948,97.881,262.2289,1.7254e-05,-1.3e-07,0.0,0 STARLINK-5163,1 54054U 22136D   23194.81239397 -.00000013  00000-0  17254-4 0  9991,2 54054  53.2173  18.1948 0000940  97.8810 262.2289 15.08839531 40905,6917.882,95.438,540.397,539.097,0.0
